satname,norad_id,inclination_deg,eccentricity,mean_motion_rev_per_day,perigee_km,apogee_km,l1,l2
STARLINK-1336,45557,53.0333,0.0003222,16.07385291,251.8889647230717,256.1627304620615,1 45557U 20025AC  25290.58615133  .00672889  24104-3  82629-3 0  9999,2 45557  53.0333 307.9492 0003222  63.9178 296.2186 16.07385291304656
STARLINK-1356,45564,53.0544,0.000145,15.06448407,546.0590473987177,548.0673554571322,1 45564U 20025AK  25290.62966630  .00014844  00000+0  10120-2 0  9995,2 45564  53.0544   8.8371 0001450  89.1753 270.9402 15.06448407303804
STARLINK-1357,45565,53.0628,0.0005251,15.29700668,473.10691204676823,480.30586857527214,1 45565U 20025AL  25290.48686569  .00051479  00000+0  17645-2 0  9994,2 45565  53.0628 356.9313 0005251 272.1557  87.8841 15.29700668303964
STARLINK-1361,45567,53.0546,0.0001328,15.0641607,546.2426263927673,548.0819858884797,1 45567U 20025AN  25290.51542646  .00008799  00000+0  60862-3 0  9994,2 45567  53.0546   9.3507 0001328  92.2491 267.8650 15.06416070303793
STARLINK-1363,45568,53.0557,0.000113,15.18214683,510.4577831010565,512.0147814628535,1 45568U 20025AP  25290.91668980  .00929113  00000+0  41456-1 0  9997,2 45568  53.0557   7.5259 0001130  83.7805 350.8573 15.18214683  5688
STARLINK-1366,45569,53.0544,9.01e-05,15.20638729,503.29270905210524,504.5328544227732,1 45569U 20025AQ  25290.91668980  .01688594  00000+0  69601-1 0  9996,2 45569  53.0544   7.1459 0000901  77.3998 128.3141 15.20638729  5784
STARLINK-1376,45570,53.056,0.0001546,15.06436984,546.0275682605752,548.1688509873902,1 45570U 20025AR  25290.51170899 -.00003750  00000+0 -23275-3 0  9996,2 45570  53.0560   9.3700 0001546  94.1664 265.9501 15.06436984303782
STARLINK-1320,45572,53.0584,0.0009439,15.40043247,439.54027434379714,452.42284536108673,1 45572U 20025AT  25290.77858425  .00039354  00000+0  97377-3 0  9995,2 45572  53.0584 314.8941 0009439 316.2464  43.7790 15.40043247304592
STARLINK-1321,45573,53.0565,0.0001354,15.06413566,546.2322938490161,548.1076669793129,1 45573U 20025AU  25290.43156418  .00004655  00000+0  33109-3 0  9991,2 45573  53.0565 359.7288 0001354  94.0013 266.1131 15.06413566303612
STARLINK-1328,45576,53.0535,0.0009191,15.63115694,372.4532639785639,384.8736145460143,1 45576U 20025AX  25290.91668980  .00130048  00000+0  13814-2 0  9995,2 45576  53.0535 339.5933 0009191 341.7305 341.2394 15.63115694  5976
STARLINK-1331,45578,53.0562,0.0001748,15.06411025,545.967223085785,548.3883131287157,1 45578U 20025AZ  25290.60850100  .00013724  00000+0  93815-3 0  9991,2 45578  53.0562 358.9343 0001748  83.2330 276.8858 15.06411025303955
STARLINK-1333,45580,53.0557,0.0001053,15.06427601,546.3977358445245,547.8561964357941,1 45580U 20025BB  25290.61493137  .00003341  00000+0  24286-3 0  9998,2 45580  53.0557   8.9056 0001053  86.4047 273.7062 15.06427601303808
STARLINK-1335,45581,53.0556,0.0001264,15.0641341,546.2950996618038,548.0458173873185,1 45581U 20025BC  25290.42051199  .00001386  00000+0  11189-3 0  9991,2 45581  53.0556 359.7803 0001264  85.1676 274.9457 15.06413410303919
STARLINK-1337,45582,53.0555,0.0001415,15.0643999,546.1090775806315,548.0689165377989,1 45582U 20025BD  25290.57530029  .00012796  00000+0  87545-3 0  9998,2 45582  53.0555 359.0862 0001415  87.9468 272.1683 15.06439990303938
STARLINK-1347,45586,53.0574,0.0005083,15.28967592,475.4118584986318,482.3827195568565,1 45586U 20025BH  25290.54208404  .00073232  00000+0  25546-2 0  9992,2 45586  53.0574 347.0822 0005083 285.4501  74.5936 15.28967592304095
STARLINK-1360,45588,53.0454,0.0006198,15.71957101,349.13192165132295,357.4762160002383,1 45588U 20025BK  25290.67224330  .00122820  00000+0  91281-3 0  9992,2 45588  53.0454 269.4650 0006198  67.9801 292.1874 15.71957101305200
STARLINK-1364,45589,53.0558,0.0001378,15.06431159,546.1617618651562,548.0703616089713,1 45589U 20025BL  25290.57900105  .00007769  00000+0  53942-3 0  9999,2 45589  53.0558 359.0720 0001378  92.6837 267.4310 15.06431159303935
STARLINK-1365,45590,53.0532,0.0001707,15.06406633,546.0090752945389,548.3733823518587,1 45590U 20025BM  25290.66101220  .00003046  00000+0  22327-3 0  9999,2 45590  53.0532  28.6985 0001707 105.8405 254.2772 15.06406633303547
STARLINK-1443,45660,53.0554,0.0001317,15.06431623,546.2025840523338,548.0266953342289,1 45660U 20035D   25290.44722856  .00012531  00000+0  85792-3 0  9992,2 45660  53.0554 349.6602 0001317  98.5993 261.5145 15.06431623297148
STARLINK-1446,45663,53.0263,0.000145,15.31904585,469.13720711428687,471.1232046039868,1 45663U 20035G   25290.76224367  .00100198  00000+0  31769-2 0  9995,2 45663  53.0263 313.7443 0001450 243.5034 116.5817 15.31904585297672
STARLINK-1448,45665,53.0565,0.0001484,15.06401803,546.1783111025179,548.2337529144188,1 45665U 20035J   25290.58361315 -.00001638  00000+0 -91073-4 0  9999,2 45665  53.0565 349.0428 0001484  94.0572 266.0586 15.06401803297151
STARLINK-1451,45668,53.055,0.0001475,15.06405867,546.1720902266097,548.2150627466726,1 45668U 20035M   25290.85273633  .00010964  00000+0  75370-3 0  9998,2 45668  53.0550 348.1556 0001475  88.0209 272.0949 15.06405867297200
STARLINK-1452,45669,53.0384,0.0008858,15.2483558,485.194270881997,497.364128621477,1 45669U 20035N   25290.40994198  .00073451  00000+0  29014-2 0  9999,2 45669  53.0384 333.0292 0008858 323.2411  36.7977 15.24835580297370
STARLINK-1453,45670,53.054,0.0001396,15.06416685,546.19364976834,548.1271928083643,1 45670U 20035P   25290.39839209  .00008329  00000+0  57715-3 0  9992,2 45670  53.0540 319.8832 0001396 101.8145 258.3001 15.06416685297441
STARLINK-1454,45671,53.0558,0.000139,15.06430844,546.1544168238097,548.0796374433521,1 45671U 20035Q   25290.60940574  .00009061  00000+0  62590-3 0  9996,2 45671  53.0558 348.9328 0001390  85.2354 274.8794 15.06430844297158
STARLINK-1456,45673,53.0555,0.0001445,15.06428644,546.123069413632,548.1244697760449,1 45673U 20035S   25290.49146366  .00009158  00000+0  63242-3 0  9994,2 45673  53.0555 349.4644 0001445  86.4135 273.7020 15.06428644297150
STARLINK-1457,45674,53.0559,0.0001545,15.06424126,546.0676612817097,548.2075711381185,1 45674U 20035T   25290.56518520  .00012675  00000+0  86772-3 0  9999,2 45674  53.0559 349.1291 0001545 109.2673 250.8483 15.06424126297130
STARLINK-1458,45675,53.0559,0.0001342,15.06406549,546.2621071863668,548.1208653520807,1 45675U 20035U   25290.55412360  .00002103  00000+0  15998-3 0  9991,2 45675  53.0559 349.1782 0001342 108.4820 251.6314 15.06406549297126
STARLINK-1460,45676,53.0556,0.0001426,15.06442629,546.0933732000894,548.0684453478143,1 45676U 20035V   25290.45827552  .00012529  00000+0  85750-3 0  9990,2 45676  53.0556 349.6090 0001426  89.5810 270.5343 15.06442629297101
STARLINK-1392,45677,53.0559,0.0001568,15.06426057,546.0458160054523,548.217580269189,1 45677U 20035W   25290.46934047  .00005009  00000+0  35468-3 0  9996,2 45677  53.0559 349.5640 0001568 102.2705 257.8459 15.06426057297145
STARLINK-1394,45679,53.0553,0.00013,15.06425438,546.2333100517462,548.033880406505,1 45679U 20035Y   25290.40023687  .00007639  00000+0  53083-3 0  9995,2 45679  53.0553 339.8711 0001300 105.4198 254.6934 15.06425438297276
STARLINK-1402,45685,53.0546,0.0001468,15.14426409,521.7074369561988,523.7335287131582,1 45685U 20035AE  25290.83335647  .00978104  00000+0  49006-1 0  9993,2 45685  53.0546 332.1739 0001468  70.3231  44.0288 15.14426409  5733
STARLINK-1404,45686,53.0556,0.000155,15.06413146,546.0978448531678,548.2446904161343,1 45686U 20035AF  25290.82411736  .00003712  00000+0  26785-3 0  9992,2 45686  53.0556 337.9710 0001550  92.0484 268.0683 15.06413146297342
STARLINK-1413,45689,53.055,0.0001213,15.06418922,546.3135275950099,547.9936030861609,1 45689U 20035AJ  25290.84254444  .00005515  00000+0  38862-3 0  9990,2 45689  53.0550 337.8814 0001213  77.9764 282.1361 15.06418922297259
STARLINK-1417,45693,53.0541,0.0001316,15.06409489,546.2711036296059,548.0938477156033,1 45693U 20035AN  25290.83886969  .00005457  00000+0  38484-3 0  9992,2 45693  53.0541 337.9037 0001316  89.0099 271.1041 15.06409489297331
STARLINK-1420,45695,53.0555,0.0001523,15.06400795,546.154391164564,548.2638515931367,1 45695U 20035AQ  25290.77341763  .00001125  00000+0  94406-4 0  9990,2 45695  53.0555 318.1835 0001523 104.0613 256.0545 15.06400795297618
STARLINK-1422,45696,53.0558,0.0001504,15.06407491,546.1470302272,548.2301681674398,1 45696U 20035AR  25290.84992991  .00003133  00000+0  22908-3 0  9992,2 45696  53.0558 337.8551 0001504  87.4813 272.6348 15.06407491297334
STARLINK-1351,45697,53.0556,0.0001398,15.06401959,546.2373910028982,548.1737167809661,1 45697U 20035AS  25290.36153411  .00001017  00000+0  87156-4 0  9992,2 45697  53.0556 320.0450 0001398  88.9646 271.1503 15.06401959297550
STARLINK-1398,45699,53.051,0.0001785,15.47253685,423.5497861259546,425.978421820073,1 45699U 20035AU  25290.83335647  .00200690  00000+0  37859-2 0  9990,2 45699  53.0510 281.7462 0001785  17.6980 312.9948 15.47253685  5839
STARLINK-1400,45700,53.054,0.000161,15.06406502,546.076652406934,548.3066082258956,1 45700U 20035AV  25290.80016073  .00001795  00000+0  13937-3 0  9996,2 45700  53.0540 318.0780 0001610  82.9669 277.1503 15.06406502297619
STARLINK-1403,45701,53.0545,0.0001536,15.06404791,546.13314296914,548.2606055353099,1 45701U 20035AW  25290.36522044  .00001548  00000+0  12281-3 0  9995,2 45701  53.0545 320.0280 0001536  69.6825 290.4329 15.06404791297540
STARLINK-1407,45703,53.0415,0.0011198,15.38266051,443.58906197379474,458.8841270760922,1 45703U 20035AY  25290.27387150  .00137239  00000+0  35259-2 0  9990,2 45703  53.0415 282.4269 0011198 354.7959   5.2925 15.38266051298070
STARLINK-1411,45706,53.0543,0.0001474,15.36798441,454.57655053941016,456.5911314433333,1 45706U 20035BB  25290.83335647  .00191623  00000+0  51303-2 0  9994,2 45706  53.0543 306.7963 0001474  63.4717 163.6279 15.36798441  5852
